[{"OBJECT_NAME":"MESON-1","OBJECT_ID":"2024-043AK","EPOCH":"2026-03-09T21:36:16.481664","MEAN_MOTION":15.29893494,"ECCENTRICITY":0.00095452,"INCLINATION":97.5469,"RA_OF_ASC_NODE":205.2839,"ARG_OF_PERICENTER":227.1432,"MEAN_ANOMALY":132.9007,"EPHEMERIS_TYPE":0,"CLASSIFICATION_TYPE":"U","NORAD_CAT_ID":59131,"ELEMENT_SET_NO":999,"REV_AT_EPOCH":11189,"BSTAR":0.0002974823,"MEAN_MOTION_DOT":8.544e-5,"MEAN_MOTION_DDOT":0},{"OBJECT_NAME":"STARLINK-35623","OBJECT_ID":"2025-237AA","EPOCH":"2026-03-09T05:04:24.841632","MEAN_MOTION":15.3019046,"ECCENTRICITY":0.0001058,"INCLINATION":53.1591,"RA_OF_ASC_NODE":42.1028,"ARG_OF_PERICENTER":90.3957,"MEAN_ANOMALY":269.7165,"EPHEMERIS_TYPE":0,"CLASSIFICATION_TYPE":"U","NORAD_CAT_ID":66138,"ELEMENT_SET_NO":999,"REV_AT_EPOCH":2253,"BSTAR":0.0013411717,"MEAN_MOTION_DOT":0.00039562,"MEAN_MOTION_DDOT":0}]
